[{"OBJECT_NAME":"STARLINK-6344","OBJECT_ID":"2023-065T","EPOCH":"2026-03-08T09:59:00.813696","MEAN_MOTION":15.02537575,"ECCENTRICITY":0.0001736,"INCLINATION":43.0028,"RA_OF_ASC_NODE":217.2146,"ARG_OF_PERICENTER":270.1952,"MEAN_ANOMALY":89.8691,"EPHEMERIS_TYPE":0,"CLASSIFICATION_TYPE":"U","NORAD_CAT_ID":56520,"ELEMENT_SET_NO":999,"REV_AT_EPOCH":15643,"BSTAR":0.00019132915,"MEAN_MOTION_DOT":2.382e-5,"MEAN_MOTION_DDOT":0},{"OBJECT_NAME":"KUIPER-00139","OBJECT_ID":"2025-217D","EPOCH":"2026-03-09T07:26:02.378400","MEAN_MOTION":15.01890214,"ECCENTRICITY":0.00071199,"INCLINATION":51.8865,"RA_OF_ASC_NODE":35.54,"ARG_OF_PERICENTER":318.901,"MEAN_ANOMALY":41.1425,"EPHEMERIS_TYPE":0,"CLASSIFICATION_TYPE":"U","NORAD_CAT_ID":65765,"ELEMENT_SET_NO":999,"REV_AT_EPOCH":2495,"BSTAR":0.00087196011,"MEAN_MOTION_DOT":0.00011274,"MEAN_MOTION_DDOT":0}]
