STARLINK-6344           
1 56520U 23065T   26067.41598164  .00002382  00000+0  19133-3 0  9997
2 56520  43.0028 217.2146 0001736 270.1952  89.8691 15.02537575156433
KUIPER-00139            
1 65765U 25217D   26068.30974975  .00011274  00000+0  87196-3 0  9990
2 65765  51.8865  35.5400 0007119 318.9010  41.1425 15.01890214 24959
